COSMOS 2058             
1 20465U 90010A   26089.10553174  .00006872  00000+0  40393-3 0  9992
2 20465  82.4696  27.3101 0007478 261.4669  98.5714 15.11511070945327
SL-14 R/B               
1 20466U 90010B   26089.19055617  .00000665  00000+0  77606-4 0  9993
2 20466  82.4999 248.1261 0018660 229.5722 130.3866 14.83588466931525
SL-14 R/B               
1 20511U 90018B   26089.02551592  .00000565  00000+0  67806-4 0  9997
2 20511  82.5238 204.0860 0016840  29.7045 330.5122 14.82165355925591
HST                     
1 20580U 90037B   26089.16812659  .00010500  00000+0  34538-3 0  9998
2 20580  28.4719 260.2692 0001806   5.3681 354.6933 15.29803034776450
SL-16 R/B               
1 20625U 90046B   26089.19781874  .00000202  00000+0  12875-3 0  9993
2 20625  70.9979 254.8386 0016386 272.7977  87.1270 14.15017096851293
COSMOS 2084             
1 20663U 90055A   26087.84866468  .00003212  00000+0  23409-3 0  9997
2 20663  62.7892 270.2268 0014042 195.9981 164.0678 15.05754696939206
SL-6 R/B(2)             
1 20666U 90055D   26088.98809647  .00002755  00000+0  21297-3 0  9996
2 20666  62.7835 184.8173 0028136 351.6091   8.4534 15.03692851941244
SL-8 R/B                
1 20775U 90078B   26089.13320396  .00014870  00000+0  44065-3 0  9998
2 20775  82.9025 232.9133 0358258 305.0467  51.7621 14.89671734812348
SL-8 R/B                
1 21088U 91006B   26089.17396775  .00000112  00000+0  97488-4 0  9998
2 21088  82.9443 154.8167 0021759 341.2995  47.5654 13.77497446766899
OKEAN-3                 
1 21397U 91039A   26089.09228365  .00003449  00000+0  24136-3 0  9992
2 21397  82.5161 317.0750 0012397 261.4906  98.4916 15.04922900868102
COSMOS 2151             
1 21422U 91042A   26089.16080762  .00002686  00000+0  21261-3 0  9998
2 21422  82.4948  63.9228 0012213 358.9747   1.1449 15.00194277866263
SL-14 R/B               
1 21423U 91042B   26088.07000912  .00000523  00000+0  63049-4 0  9996
2 21423  82.4956 202.0127 0017235 172.6233 187.5238 14.81848936855941
