CCSDS_OMM_VERS = 2.0
CREATION_DATE  = 
ORIGINATOR     = 

OBJECT_NAME    = COSMOS 2058
OBJECT_ID      = 1990-010A
CENTER_NAME    = EARTH
REF_FRAME      = TEME
TIME_SYSTEM    = UTC
MEAN_ELEMENT_THEORY = SGP/SGP4

EPOCH          = 2026-03-30T02:31:57.942336
MEAN_MOTION    = 15.11511070
ECCENTRICITY   = .0007478
INCLINATION    = 82.4696
RA_OF_ASC_NODE = 27.3101
ARG_OF_PERICENTER = 261.4669
MEAN_ANOMALY   = 98.5714

EPHEMERIS_TYPE = 0
CLASSIFICATION_TYPE = U
NORAD_CAT_ID   = 20465
ELEMENT_SET_NO = 999
REV_AT_EPOCH   = 94532
BSTAR          = .40393E-3
MEAN_MOTION_DOT = .6872E-4
MEAN_MOTION_DDOT = 0

CCSDS_OMM_VERS = 2.0
CREATION_DATE  = 
ORIGINATOR     = 

OBJECT_NAME    = SL-14 R/B
OBJECT_ID      = 1990-010B
CENTER_NAME    = EARTH
REF_FRAME      = TEME
TIME_SYSTEM    = UTC
MEAN_ELEMENT_THEORY = SGP/SGP4

EPOCH          = 2026-03-30T04:34:24.053088
MEAN_MOTION    = 14.83588466
ECCENTRICITY   = .001866
INCLINATION    = 82.4999
RA_OF_ASC_NODE = 248.1261
ARG_OF_PERICENTER = 229.5722
MEAN_ANOMALY   = 130.3866

EPHEMERIS_TYPE = 0
CLASSIFICATION_TYPE = U
NORAD_CAT_ID   = 20466
ELEMENT_SET_NO = 999
REV_AT_EPOCH   = 93152
BSTAR          = .77606E-4
MEAN_MOTION_DOT = .665E-5
MEAN_MOTION_DDOT = 0

CCSDS_OMM_VERS = 2.0
CREATION_DATE  = 
ORIGINATOR     = 

OBJECT_NAME    = SL-14 R/B
OBJECT_ID      = 1990-018B
CENTER_NAME    = EARTH
REF_FRAME      = TEME
TIME_SYSTEM    = UTC
MEAN_ELEMENT_THEORY = SGP/SGP4

EPOCH          = 2026-03-30T00:36:44.575488
MEAN_MOTION    = 14.82165355
ECCENTRICITY   = .001684
INCLINATION    = 82.5238
RA_OF_ASC_NODE = 204.0860
ARG_OF_PERICENTER = 29.7045
MEAN_ANOMALY   = 330.5122

EPHEMERIS_TYPE = 0
CLASSIFICATION_TYPE = U
NORAD_CAT_ID   = 20511
ELEMENT_SET_NO = 999
REV_AT_EPOCH   = 92559
BSTAR          = .67806E-4
MEAN_MOTION_DOT = .565E-5
MEAN_MOTION_DDOT = 0

CCSDS_OMM_VERS = 2.0
CREATION_DATE  = 
ORIGINATOR     = 

OBJECT_NAME    = HST
OBJECT_ID      = 1990-037B
CENTER_NAME    = EARTH
REF_FRAME      = TEME
TIME_SYSTEM    = UTC
MEAN_ELEMENT_THEORY = SGP/SGP4

EPOCH          = 2026-03-30T04:02:06.137376
MEAN_MOTION    = 15.29803034
ECCENTRICITY   = .0001806
INCLINATION    = 28.4719
RA_OF_ASC_NODE = 260.2692
ARG_OF_PERICENTER = 5.3681
MEAN_ANOMALY   = 354.6933

EPHEMERIS_TYPE = 0
CLASSIFICATION_TYPE = U
NORAD_CAT_ID   = 20580
ELEMENT_SET_NO = 999
REV_AT_EPOCH   = 77645
BSTAR          = .34538E-3
MEAN_MOTION_DOT = .105E-3
MEAN_MOTION_DDOT = 0

CCSDS_OMM_VERS = 2.0
CREATION_DATE  = 
ORIGINATOR     = 

OBJECT_NAME    = SL-16 R/B
OBJECT_ID      = 1990-046B
CENTER_NAME    = EARTH
REF_FRAME      = TEME
TIME_SYSTEM    = UTC
MEAN_ELEMENT_THEORY = SGP/SGP4

EPOCH          = 2026-03-30T04:44:51.539136
MEAN_MOTION    = 14.15017096
ECCENTRICITY   = .0016386
INCLINATION    = 70.9979
RA_OF_ASC_NODE = 254.8386
ARG_OF_PERICENTER = 272.7977
MEAN_ANOMALY   = 87.1270

EPHEMERIS_TYPE = 0
CLASSIFICATION_TYPE = U
NORAD_CAT_ID   = 20625
ELEMENT_SET_NO = 999
REV_AT_EPOCH   = 85129
BSTAR          = .12875E-3
MEAN_MOTION_DOT = .202E-5
MEAN_MOTION_DDOT = 0

CCSDS_OMM_VERS = 2.0
CREATION_DATE  = 
ORIGINATOR     = 

OBJECT_NAME    = COSMOS 2084
OBJECT_ID      = 1990-055A
CENTER_NAME    = EARTH
REF_FRAME      = TEME
TIME_SYSTEM    = UTC
MEAN_ELEMENT_THEORY = SGP/SGP4

EPOCH          = 2026-03-28T20:22:04.628352
MEAN_MOTION    = 15.05754696
ECCENTRICITY   = .00140427
INCLINATION    = 62.7892
RA_OF_ASC_NODE = 270.2268
ARG_OF_PERICENTER = 195.9981
MEAN_ANOMALY   = 164.0678

EPHEMERIS_TYPE = 0
CLASSIFICATION_TYPE = U
NORAD_CAT_ID   = 20663
ELEMENT_SET_NO = 999
REV_AT_EPOCH   = 93920
BSTAR          = .23409206E-3
MEAN_MOTION_DOT = .3212E-4
MEAN_MOTION_DDOT = 0

CCSDS_OMM_VERS = 2.0
CREATION_DATE  = 
ORIGINATOR     = 

OBJECT_NAME    = SL-6 R/B(2)
OBJECT_ID      = 1990-055D
CENTER_NAME    = EARTH
REF_FRAME      = TEME
TIME_SYSTEM    = UTC
MEAN_ELEMENT_THEORY = SGP/SGP4

EPOCH          = 2026-03-29T23:42:51.535008
MEAN_MOTION    = 15.03692851
ECCENTRICITY   = .0028136
INCLINATION    = 62.7835
RA_OF_ASC_NODE = 184.8173
ARG_OF_PERICENTER = 351.6091
MEAN_ANOMALY   = 8.4534

EPHEMERIS_TYPE = 0
CLASSIFICATION_TYPE = U
NORAD_CAT_ID   = 20666
ELEMENT_SET_NO = 999
REV_AT_EPOCH   = 94124
BSTAR          = .21297E-3
MEAN_MOTION_DOT = .2755E-4
MEAN_MOTION_DDOT = 0

CCSDS_OMM_VERS = 2.0
CREATION_DATE  = 
ORIGINATOR     = 

OBJECT_NAME    = SL-8 R/B
OBJECT_ID      = 1990-078B
CENTER_NAME    = EARTH
REF_FRAME      = TEME
TIME_SYSTEM    = UTC
MEAN_ELEMENT_THEORY = SGP/SGP4

EPOCH          = 2026-03-30T03:11:48.822144
MEAN_MOTION    = 14.89671734
ECCENTRICITY   = .0358258
INCLINATION    = 82.9025
RA_OF_ASC_NODE = 232.9133
ARG_OF_PERICENTER = 305.0467
MEAN_ANOMALY   = 51.7621

EPHEMERIS_TYPE = 0
CLASSIFICATION_TYPE = U
NORAD_CAT_ID   = 20775
ELEMENT_SET_NO = 999
REV_AT_EPOCH   = 81234
BSTAR          = .44065E-3
MEAN_MOTION_DOT = .1487E-3
MEAN_MOTION_DDOT = 0

CCSDS_OMM_VERS = 2.0
CREATION_DATE  = 
ORIGINATOR     = 

OBJECT_NAME    = SL-8 R/B
OBJECT_ID      = 1991-006B
CENTER_NAME    = EARTH
REF_FRAME      = TEME
TIME_SYSTEM    = UTC
MEAN_ELEMENT_THEORY = SGP/SGP4

EPOCH          = 2026-03-30T04:10:30.813600
MEAN_MOTION    = 13.77497446
ECCENTRICITY   = .0021759
INCLINATION    = 82.9443
RA_OF_ASC_NODE = 154.8167
ARG_OF_PERICENTER = 341.2995
MEAN_ANOMALY   = 47.5654

EPHEMERIS_TYPE = 0
CLASSIFICATION_TYPE = U
NORAD_CAT_ID   = 21088
ELEMENT_SET_NO = 999
REV_AT_EPOCH   = 76689
BSTAR          = .97488E-4
MEAN_MOTION_DOT = .112E-5
MEAN_MOTION_DDOT = 0

CCSDS_OMM_VERS = 2.0
CREATION_DATE  = 
ORIGINATOR     = 

OBJECT_NAME    = OKEAN-3
OBJECT_ID      = 1991-039A
CENTER_NAME    = EARTH
REF_FRAME      = TEME
TIME_SYSTEM    = UTC
MEAN_ELEMENT_THEORY = SGP/SGP4

EPOCH          = 2026-03-30T02:12:53.307360
MEAN_MOTION    = 15.04922900
ECCENTRICITY   = .0012397
INCLINATION    = 82.5161
RA_OF_ASC_NODE = 317.0750
ARG_OF_PERICENTER = 261.4906
MEAN_ANOMALY   = 98.4916

EPHEMERIS_TYPE = 0
CLASSIFICATION_TYPE = U
NORAD_CAT_ID   = 21397
ELEMENT_SET_NO = 999
REV_AT_EPOCH   = 86810
BSTAR          = .24136E-3
MEAN_MOTION_DOT = .3449E-4
MEAN_MOTION_DDOT = 0

CCSDS_OMM_VERS = 2.0
CREATION_DATE  = 
ORIGINATOR     = 

OBJECT_NAME    = COSMOS 2151
OBJECT_ID      = 1991-042A
CENTER_NAME    = EARTH
REF_FRAME      = TEME
TIME_SYSTEM    = UTC
MEAN_ELEMENT_THEORY = SGP/SGP4

EPOCH          = 2026-03-30T03:51:33.778368
MEAN_MOTION    = 15.00194277
ECCENTRICITY   = .0012213
INCLINATION    = 82.4948
RA_OF_ASC_NODE = 63.9228
ARG_OF_PERICENTER = 358.9747
MEAN_ANOMALY   = 1.1449

EPHEMERIS_TYPE = 0
CLASSIFICATION_TYPE = U
NORAD_CAT_ID   = 21422
ELEMENT_SET_NO = 999
REV_AT_EPOCH   = 86626
BSTAR          = .21261E-3
MEAN_MOTION_DOT = .2686E-4
MEAN_MOTION_DDOT = 0

CCSDS_OMM_VERS = 2.0
CREATION_DATE  = 
ORIGINATOR     = 

OBJECT_NAME    = SL-14 R/B
OBJECT_ID      = 1991-042B
CENTER_NAME    = EARTH
REF_FRAME      = TEME
TIME_SYSTEM    = UTC
MEAN_ELEMENT_THEORY = SGP/SGP4

EPOCH          = 2026-03-29T01:40:48.787968
MEAN_MOTION    = 14.81848936
ECCENTRICITY   = .0017235
INCLINATION    = 82.4956
RA_OF_ASC_NODE = 202.0127
ARG_OF_PERICENTER = 172.6233
MEAN_ANOMALY   = 187.5238

EPHEMERIS_TYPE = 0
CLASSIFICATION_TYPE = U
NORAD_CAT_ID   = 21423
ELEMENT_SET_NO = 999
REV_AT_EPOCH   = 85594
BSTAR          = .63049E-4
MEAN_MOTION_DOT = .523E-5
MEAN_MOTION_DDOT = 0

